[{"OBJECT_NAME":"AEROCUBE 8D","OBJECT_ID":"2016-067E","EPOCH":"2026-03-09T12:44:23.382816","MEAN_MOTION":15.22872123,"ECCENTRICITY":0.000476,"INCLINATION":98.083,"RA_OF_ASC_NODE":291.1456,"ARG_OF_PERICENTER":111.8703,"MEAN_ANOMALY":248.3038,"EPHEMERIS_TYPE":0,"CLASSIFICATION_TYPE":"U","NORAD_CAT_ID":41852,"ELEMENT_SET_NO":999,"REV_AT_EPOCH":51089,"BSTAR":0.00039318756,"MEAN_MOTION_DOT":9.137e-5,"MEAN_MOTION_DDOT":0},{"OBJECT_NAME":"OBJECT M","OBJECT_ID":"2025-313M","EPOCH":"2026-03-09T22:20:16.857024","MEAN_MOTION":15.2204252,"ECCENTRICITY":0.00144876,"INCLINATION":97.404,"RA_OF_ASC_NODE":145.2434,"ARG_OF_PERICENTER":355.7069,"MEAN_ANOMALY":4.404,"EPHEMERIS_TYPE":0,"CLASSIFICATION_TYPE":"U","NORAD_CAT_ID":67259,"ELEMENT_SET_NO":999,"REV_AT_EPOCH":1085,"BSTAR":0.00067362999,"MEAN_MOTION_DOT":0.00015392,"MEAN_MOTION_DDOT":0}]
